GLOBALSTAR M080         
1 38041U 11080B   26194.61773229 -.00000087  00000+0  95324-4 0  9997
2 38041  52.0065 298.5472 0000329  80.7125  24.9424 12.62257356672223
GLOBALSTAR M082         
1 38042U 11080C   26194.47401115 -.00000071  00000+0  18317-3 0  9993
2 38042  52.0063 254.4891 0000207  94.8998   7.2449 12.62264119672919
GLOBALSTAR M092         
1 38043U 11080D   26194.43303604 -.00000088  00000+0  88877-4 0  9991
2 38043  52.0104 345.0105 0000806 100.4772 294.7204 12.62267776671362
GLOBALSTAR M090         
1 38044U 11080E   26194.33731076 -.00000066  00000+0  21235-3 0  9999
2 38044  52.0109 248.8695 0000440  97.8861 341.5157 12.62269392673012
GLOBALSTAR M086         
1 38045U 11080F   26194.35903874 -.00000079  00000+0  13766-3 0  9993
2 38045  51.9878 248.6890 0001554 109.3959 332.3649 12.62287710672964
GLOBALSTAR M097         
1 39072U 13005A   26194.29363462 -.00000118  00000+0 -80269-4 0  9997
2 39072  52.0026 163.8647 0000382  37.5413 322.5481 12.62271431620203
GLOBALSTAR M093         
1 39073U 13005B   26194.26686013 -.00000115  00000+0 -59923-4 0  9995
2 39073  52.0087 157.3029 0000608  41.5808 318.5105 12.62266344620156
GLOBALSTAR M094         
1 39074U 13005C   26193.87079164 -.00000121  00000+0 -95421-4 0  9995
2 39074  51.9967  72.6003 0000948  58.2720 301.8239 12.62264077621715
GLOBALSTAR M096         
1 39075U 13005D   26194.20105698 -.00000117  00000+0 -75049-4 0  9995
2 39075  52.0067 120.4160 0000702  38.1669 321.9247 12.62265679620677
GLOBALSTAR M078         
1 39076U 13005E   26194.41173076 -.00000095  00000+0  50443-4 0  9999
2 39076  51.9843 203.7494 0000788 332.9805  27.1021 12.62260133619329
GLOBALSTAR M095         
1 39077U 13005F   26193.40901959 -.00000081  00000+0  12839-3 0  9998
2 39077  52.0054 204.4426 0000352  10.4758 349.6116 12.62264177619050
GLOBALSTAR M087         
1 52888U 22064A   26194.68908602 -.00000104  00000+0 -14931-6 0  9996
2 52888  52.0015 341.7692 0000916  84.3600 275.7371 12.62269319194484
